start=new Date('2021-11-25T00:00:00.000Z').valueOf();
sats=[{"FILE":"3223022","REF_FRAME":"TEME","MEAN_ANOMALY":"292.6181","BSTAR":"-0.00001579100000","MEAN_MOTION_DOT":"-0.00000517","LAUNCH_DATE":"2020-10-06","OBJECT_TYPE":"PAYLOAD","APOAPSIS":"548.268","EPHEMERIS_TYPE":"0","GP_ID":"190398086","NORAD_CAT_ID":"46535","CENTER_NAME":"EARTH","INCLINATION":"53.0562","CLASSIFICATION_TYPE":"U","MEAN_ELEMENT_THEORY":"SGP4","MEAN_MOTION_DDOT":"0.0000000000000","OBJECT_ID":"2020-070D","PERIOD":"95.593","TLE_LINE2":"2 46535  53.0562   8.5086 0001472  67.4964 292.6181 15.06388639 63404","SEMIMAJOR_AXIS":"6925.383","RA_OF_ASC_NODE":"8.5086","ARG_OF_PERICENTER":"67.4964","MEAN_MOTION":"15.06388639","SITE":"AFETR","ELEMENT_SET_NO":"999","OBJECT_NAME":"STARLINK-1663","PERIAPSIS":"546.229","EPOCH":"2021-11-24T06:44:54.978432","COUNTRY_CODE":"US","REV_AT_EPOCH":"6340","TIME_SYSTEM":"UTC","DECAY_DATE":null,"TLE_LINE1":"1 46535U 20070D   21328.28119188 -.00000517  00000-0 -15791-4 0  9998","RCS_SIZE":"LARGE","ECCENTRICITY":"0.00014720"},{"REF_FRAME":"TEME","FILE":"3223205","MEAN_ANOMALY":"182.1624","BSTAR":"0.00029709000000","MEAN_MOTION_DOT":"0.00045635","LAUNCH_DATE":"2020-10-06","NORAD_CAT_ID":"46536","CENTER_NAME":"EARTH","INCLINATION":"53.0552","CLASSIFICATION_TYPE":"U","OBJECT_TYPE":"PAYLOAD","APOAPSIS":"354.230","EPHEMERIS_TYPE":"0","GP_ID":"190425557","ARG_OF_PERICENTER":"177.9461","MEAN_MOTION":"15.75316378","SITE":"AFETR","ELEMENT_SET_NO":"999","PERIAPSIS":"333.236","OBJECT_NAME":"STARLINK-1668","COUNTRY_CODE":"US","EPOCH":"2021-11-24T20:16:13.998144","MEAN_ELEMENT_THEORY":"SGP4","MEAN_MOTION_DDOT":"0.0000000000000","OBJECT_ID":"2020-070E","TLE_LINE2":"2 46536  53.0552 328.4269 0015616 177.9461 182.1624 15.75316378 64026","PERIOD":"91.410","SEMIMAJOR_AXIS":"6721.868","RA_OF_ASC_NODE":"328.4269","RCS_SIZE":"LARGE","ECCENTRICITY":"0.00156160","REV_AT_EPOCH":"6402","TIME_SYSTEM":"UTC","DECAY_DATE":null,"TLE_LINE1":"1 46536U 20070E   21328.84460646  .00045635  00000-0  29709-3 0  9990"},{"INCLINATION":"53.0544","CLASSIFICATION_TYPE":"U","CENTER_NAME":"EARTH","NORAD_CAT_ID":"46537","GP_ID":"190402869","APOAPSIS":"548.182","EPHEMERIS_TYPE":"0","OBJECT_TYPE":"PAYLOAD","LAUNCH_DATE":"2020-10-06","MEAN_MOTION_DOT":"-0.00000211","BSTAR":"0.00000472940000","REF_FRAME":"TEME","FILE":"3223157","MEAN_ANOMALY":"308.5042","ECCENTRICITY":"0.00014130","RCS_SIZE":"LARGE","TLE_LINE1":"1 46537U 20070F   21328.50603071 -.00000211  00000-0  47294-5 0  9998","DECAY_DATE":null,"TIME_SYSTEM":"UTC","REV_AT_EPOCH":"6315","COUNTRY_CODE":"US","EPOCH":"2021-11-24T12:08:41.053344","PERIAPSIS":"546.225","OBJECT_NAME":"STARLINK-1672","ELEMENT_SET_NO":"999","MEAN_MOTION":"15.06403271","SITE":"AFETR","ARG_OF_PERICENTER":"51.6074","SEMIMAJOR_AXIS":"6925.339","RA_OF_ASC_NODE":"7.5010","PERIOD":"95.592","TLE_LINE2":"2 46537  53.0544   7.5010 0001413  51.6074 308.5042 15.06403271 63159","OBJECT_ID":"2020-070F","MEAN_MOTION_DDOT":"0.0000000000000","MEAN_ELEMENT_THEORY":"SGP4"},{"MEAN_MOTION_DDOT":"0.0000000000000","MEAN_ELEMENT_THEORY":"SGP4","SEMIMAJOR_AXIS":"6925.356","RA_OF_ASC_NODE":"8.4887","PERIOD":"95.592","TLE_LINE2":"2 46538  53.0550   8.4887 0001357  65.2456 294.8674 15.06397732 63401","OBJECT_ID":"2020-070G","MEAN_MOTION":"15.06397732","SITE":"AFETR","ARG_OF_PERICENTER":"65.2456","COUNTRY_CODE":"US","EPOCH":"2021-11-24T06:50:13.513632","OBJECT_NAME":"STARLINK-1678","PERIAPSIS":"546.281","ELEMENT_SET_NO":"999","TIME_SYSTEM":"UTC","REV_AT_EPOCH":"6340","TLE_LINE1":"1 46538U 20070G   21328.28487863 -.00000234  00000-0  31726-5 0  9991","DECAY_DATE":null,"RCS_SIZE":"LARGE","ECCENTRICITY":"0.00013570","BSTAR":"0.00000317260000","FILE":"3223022","MEAN_ANOMALY":"294.8674","REF_FRAME":"TEME","LAUNCH_DATE":"2020-10-06","MEAN_MOTION_DOT":"-0.00000234","GP_ID":"190397843","EPHEMERIS_TYPE":"0","APOAPSIS":"548.160","OBJECT_TYPE":"PAYLOAD","CENTER_NAME":"EARTH","NORAD_CAT_ID":"46538","INCLINATION":"53.0550","CLASSIFICATION_TYPE":"U"},{"RCS_SIZE":"LARGE","ECCENTRICITY":"0.00011770","REV_AT_EPOCH":"6347","TIME_SYSTEM":"UTC","DECAY_DATE":null,"TLE_LINE1":"1 46539U 20070H   21328.66751144  .00074620  00000-0  46588-2 0  9998","ARG_OF_PERICENTER":"93.4345","SITE":"AFETR","MEAN_MOTION":"15.08825704","ELEMENT_SET_NO":"999","COUNTRY_CODE":"US","EPOCH":"2021-11-24T16:01:12.988416","PERIAPSIS":"538.975","OBJECT_NAME":"STARLINK-1684","MEAN_ELEMENT_THEORY":"SGP4","MEAN_MOTION_DDOT":"0.0000000000000","OBJECT_ID":"2020-070H","SEMIMAJOR_AXIS":"6917.924","RA_OF_ASC_NODE":"6.6750","TLE_LINE2":"2 46539  53.0520   6.6750 0001177  93.4345 266.6780 15.08825704 63477","PERIOD":"95.438","CENTER_NAME":"EARTH","NORAD_CAT_ID":"46539","CLASSIFICATION_TYPE":"U","INCLINATION":"53.0520","OBJECT_TYPE":"PAYLOAD","GP_ID":"190425307","EPHEMERIS_TYPE":"0","APOAPSIS":"540.603","FILE":"3223205","REF_FRAME":"TEME","MEAN_ANOMALY":"266.6780","BSTAR":"0.00465880000000","MEAN_MOTION_DOT":"0.00074620","LAUNCH_DATE":"2020-10-06"},{"CENTER_NAME":"EARTH","NORAD_CAT_ID":"46541","CLASSIFICATION_TYPE":"U","INCLINATION":"53.0554","OBJECT_TYPE":"PAYLOAD","GP_ID":"190398331","EPHEMERIS_TYPE":"0","APOAPSIS":"548.284","FILE":"3223022","REF_FRAME":"TEME","MEAN_ANOMALY":"299.7863","BSTAR":"-0.00001155900000","MEAN_MOTION_DOT":"-0.00000454","LAUNCH_DATE":"2020-10-06","RCS_SIZE":"LARGE","ECCENTRICITY":"0.00015630","REV_AT_EPOCH":"6365","TIME_SYSTEM":"UTC","DECAY_DATE":null,"TLE_LINE1":"1 46541U 20070K   21328.06555496 -.00000454  00000-0 -11559-4 0  9995","ARG_OF_PERICENTER":"60.3282","SITE":"AFETR","MEAN_MOTION":"15.06404060","ELEMENT_SET_NO":"999","EPOCH":"2021-11-24T01:34:23.948544","COUNTRY_CODE":"US","OBJECT_NAME":"STARLINK-1687","PERIAPSIS":"546.119","MEAN_ELEMENT_THEORY":"SGP4","MEAN_MOTION_DDOT":"0.0000000000000","OBJECT_ID":"2020-070K","SEMIMAJOR_AXIS":"6925.336","RA_OF_ASC_NODE":"349.4591","PERIOD":"95.592","TLE_LINE2":"2 46541  53.0554 349.4591 0001563  60.3282 299.7863 15.06404060 63655"},{"TLE_LINE1":"1 46542U 20070L   21328.53183103  .00000122  00000-0  27094-4 0  9991","DECAY_DATE":null,"TIME_SYSTEM":"UTC","REV_AT_EPOCH":"6344","ECCENTRICITY":"0.00016770","RCS_SIZE":"LARGE","PERIOD":"95.592","TLE_LINE2":"2 46542  53.0554   7.3816 0001677  67.9626 292.1541 15.06405164 63440","RA_OF_ASC_NODE":"7.3816","SEMIMAJOR_AXIS":"6925.333","OBJECT_ID":"2020-070L","MEAN_MOTION_DDOT":"0.0000000000000","MEAN_ELEMENT_THEORY":"SGP4","OBJECT_NAME":"STARLINK-1692","PERIAPSIS":"546.036","COUNTRY_CODE":"US","EPOCH":"2021-11-24T12:45:50.200992","ELEMENT_SET_NO":"999","SITE":"AFETR","MEAN_MOTION":"15.06405164","ARG_OF_PERICENTER":"67.9626","EPHEMERIS_TYPE":"0","APOAPSIS":"548.359","GP_ID":"190397093","OBJECT_TYPE":"PAYLOAD","CLASSIFICATION_TYPE":"U","INCLINATION":"53.0554","NORAD_CAT_ID":"46542","CENTER_NAME":"EARTH","LAUNCH_DATE":"2020-10-06","MEAN_MOTION_DOT":"0.00000122","BSTAR":"0.00002709400000","FILE":"3223022","MEAN_ANOMALY":"292.1541","REF_FRAME":"TEME"},{"ARG_OF_PERICENTER":"67.4660","SITE":"AFETR","MEAN_MOTION":"15.06396135","ELEMENT_SET_NO":"999","COUNTRY_CODE":"US","EPOCH":"2021-11-24T12:24:37.019232","OBJECT_NAME":"STARLINK-1693","PERIAPSIS":"546.225","MEAN_ELEMENT_THEORY":"SGP4","MEAN_MOTION_DDOT":"0.0000000000000","OBJECT_ID":"2020-070M","RA_OF_ASC_NODE":"7.4366","SEMIMAJOR_AXIS":"6925.360","PERIOD":"95.592","TLE_LINE2":"2 46543  53.0558   7.4366 0001444  67.4660 292.6482 15.06396135 63447","RCS_SIZE":"LARGE","ECCENTRICITY":"0.00014440","REV_AT_EPOCH":"6344","TIME_SYSTEM":"UTC","DECAY_DATE":null,"TLE_LINE1":"1 46543U 20070M   21328.51709513 -.00000212  00000-0  46851-5 0  9993","FILE":"3223022","REF_FRAME":"TEME","MEAN_ANOMALY":"292.6482","BSTAR":"0.00000468510000","MEAN_MOTION_DOT":"-0.00000212","LAUNCH_DATE":"2020-10-06","CENTER_NAME":"EARTH","NORAD_CAT_ID":"46543","INCLINATION":"53.0558","CLASSIFICATION_TYPE":"U","OBJECT_TYPE":"PAYLOAD","GP_ID":"190397343","EPHEMERIS_TYPE":"0","APOAPSIS":"548.225"},{"GP_ID":"190402920","EPHEMERIS_TYPE":"0","APOAPSIS":"548.174","OBJECT_TYPE":"PAYLOAD","CLASSIFICATION_TYPE":"U","INCLINATION":"53.0562","CENTER_NAME":"EARTH","NORAD_CAT_ID":"46544","LAUNCH_DATE":"2020-10-06","MEAN_MOTION_DOT":"-0.00001060","BSTAR":"-0.00005225200000","FILE":"3223160","REF_FRAME":"TEME","MEAN_ANOMALY":"291.7499","TLE_LINE1":"1 46544U 20070N   21328.44659729 -.00001060  00000-0 -52252-4 0  9993","DECAY_DATE":null,"TIME_SYSTEM":"UTC","REV_AT_EPOCH":"6365","ECCENTRICITY":"0.00013720","RCS_SIZE":"LARGE","RA_OF_ASC_NODE":"352.7563","SEMIMAJOR_AXIS":"6925.359","PERIOD":"95.592","TLE_LINE2":"2 46544  53.0562 352.7563 0001372  68.3636 291.7499 15.06396588 63654","OBJECT_ID":"2020-070N","MEAN_MOTION_DDOT":"0.0000000000000","MEAN_ELEMENT_THEORY":"SGP4","EPOCH":"2021-11-24T10:43:06.005856","COUNTRY_CODE":"US","OBJECT_NAME":"STARLINK-1694","PERIAPSIS":"546.274","ELEMENT_SET_NO":"999","SITE":"AFETR","MEAN_MOTION":"15.06396588","ARG_OF_PERICENTER":"68.3636"},{"NORAD_CAT_ID":"46545","CENTER_NAME":"EARTH","INCLINATION":"53.0563","CLASSIFICATION_TYPE":"U","APOAPSIS":"548.293","EPHEMERIS_TYPE":"0","GP_ID":"190425558","OBJECT_TYPE":"PAYLOAD","BSTAR":"0.00003714700000","REF_FRAME":"TEME","FILE":"3223205","MEAN_ANOMALY":"295.7003","LAUNCH_DATE":"2020-10-06","MEAN_MOTION_DOT":"0.00000272","RCS_SIZE":"LARGE","ECCENTRICITY":"0.00015450","TIME_SYSTEM":"UTC","REV_AT_EPOCH":"6345","TLE_LINE1":"1 46545U 20070P   21328.62029745  .00000272  00000-0  37147-4 0  9991","DECAY_DATE":null,"SITE":"AFETR","MEAN_MOTION":"15.06396879","ARG_OF_PERICENTER":"64.4146","OBJECT_NAME":"STARLINK-1696","PERIAPSIS":"546.153","EPOCH":"2021-11-24T14:53:13.699680","COUNTRY_CODE":"US","ELEMENT_SET_NO":"999","MEAN_MOTION_DDOT":"0.0000000000000","MEAN_ELEMENT_THEORY":"SGP4","PERIOD":"95.592","TLE_LINE2":"2 46545  53.0563   6.9867 0001545  64.4146 295.7003 15.06396879 63452","RA_OF_ASC_NODE":"6.9867","SEMIMAJOR_AXIS":"6925.358","OBJECT_ID":"2020-070P"}];
